{
  "type": "FeatureCollection",
  "features": [
    {
      "type": "Feature",
      "properties": {
        "norad_id": 34141,
        "name": "COSMOS 2251 DEB",
        "group": "cosmos-2251-debris",
        "lat": -2.9614170411448737,
        "lon": 5.952134460283267,
        "alt_km": 731.6459763791299,
        "timestamp": "2025-12-24T11:33:00.412453+00:00",
        "meta_object_name": "COSMOS 2251 DEB",
        "meta_object_id": "1993-036LN",
        "meta_epoch": "2025-12-24T01:52:52.839840",
        "meta_mean_motion": 14.49348832,
        "meta_eccentricity": 0.0046489,
        "meta_inclination": 74.0112,
        "meta_ra_of_asc_node": 7.5586,
        "meta_arg_of_pericenter": 89.6823,
        "meta_mean_anomaly": 326.7238,
        "meta_ephemeris_type": 0,
        "meta_classification_type": "U",
        "meta_norad_cat_id": 34141,
        "meta_element_set_no": 999,
        "meta_rev_at_epoch": 87858,
        "meta_bstar": 0.0013987,
        "meta_mean_motion_dot": 5.394e-05,
        "meta_mean_motion_ddot": 0,
        "tle_line1": "1 34141U 93036LN  25358.07838935  .00005394  00000+0  13987-2 0  9990",
        "tle_line2": "2 34141  74.0112   7.5586 0046489  89.6823 326.7238 14.49348832878581"
      },
      "geometry": {
        "type": "Point",
        "coordinates": [
          5.952134460283267,
          -2.9614170411448737
        ]
      }
    },
    {
      "type": "Feature",
      "properties": {
        "norad_id": 34270,
        "name": "COSMOS 2251 DEB",
        "group": "cosmos-2251-debris",
        "lat": -73.51498788233263,
        "lon": 179.66650667495162,
        "alt_km": 716.2409166143643,
        "timestamp": "2025-12-24T11:33:00.412464+00:00",
        "meta_object_name": "COSMOS 2251 DEB",
        "meta_object_id": "1993-036LQ",
        "meta_epoch": "2025-12-24T03:47:14.758944",
        "meta_mean_motion": 14.65250987,
        "meta_eccentricity": 0.004799,
        "meta_inclination": 74.0116,
        "meta_ra_of_asc_node": 284.6234,
        "meta_arg_of_pericenter": 73.967,
        "meta_mean_anomaly": 286.6775,
        "meta_ephemeris_type": 0,
        "meta_classification_type": "U",
        "meta_norad_cat_id": 34270,
        "meta_element_set_no": 999,
        "meta_rev_at_epoch": 89263,
        "meta_bstar": 0.00068527,
        "meta_mean_motion_dot": 3.726e-05,
        "meta_mean_motion_ddot": 0,
        "tle_line1": "1 34270U 93036LQ  25358.15780971  .00003726  00000+0  68527-3 0  9996",
        "tle_line2": "2 34270  74.0116 284.6234 0047990  73.9670 286.6775 14.65250987892633"
      },
      "geometry": {
        "type": "Point",
        "coordinates": [
          179.66650667495162,
          -73.51498788233263
        ]
      }
    },
    {
      "type": "Feature",
      "properties": {
        "norad_id": 34271,
        "name": "COSMOS 2251 DEB",
        "group": "cosmos-2251-debris",
        "lat": 73.95521804918772,
        "lon": -88.655201616001,
        "alt_km": 659.9610321321106,
        "timestamp": "2025-12-24T11:33:00.412475+00:00",
        "meta_object_name": "COSMOS 2251 DEB",
        "meta_object_id": "1993-036LR",
        "meta_epoch": "2025-12-23T18:54:03.787776",
        "meta_mean_motion": 14.70993585,
        "meta_eccentricity": 0.00182001,
        "meta_inclination": 74.0195,
        "meta_ra_of_asc_node": 177.8583,
        "meta_arg_of_pericenter": 231.0975,
        "meta_mean_anomaly": 148.2753,
        "meta_ephemeris_type": 0,
        "meta_classification_type": "U",
        "meta_norad_cat_id": 34271,
        "meta_element_set_no": 999,
        "meta_rev_at_epoch": 88397,
        "meta_bstar": 0.0021218161,
        "meta_mean_motion_dot": 0.00013043,
        "meta_mean_motion_ddot": 0,
        "tle_line1": "1 34271U 93036LR  25357.78754384  .00013043  00000+0  21218-2 0  9992",
        "tle_line2": "2 34271  74.0195 177.8583 0018200 231.0975 148.2753 14.70993585883978"
      },
      "geometry": {
        "type": "Point",
        "coordinates": [
          -88.655201616001,
          73.95521804918772
        ]
      }
    },
    {
      "type": "Feature",
      "properties": {
        "norad_id": 34273,
        "name": "COSMOS 2251 DEB",
        "group": "cosmos-2251-debris",
        "lat": 60.741412991036526,
        "lon": 95.70555797202573,
        "alt_km": 688.1275810554662,
        "timestamp": "2025-12-24T11:33:00.412485+00:00",
        "meta_object_name": "COSMOS 2251 DEB",
        "meta_object_id": "1993-036LT",
        "meta_epoch": "2025-12-23T22:55:37.017120",
        "meta_mean_motion": 14.61319399,
        "meta_eccentricity": 0.0013458,
        "meta_inclination": 74.0358,
        "meta_ra_of_asc_node": 65.9823,
        "meta_arg_of_pericenter": 191.5668,
        "meta_mean_anomaly": 347.9241,
        "meta_ephemeris_type": 0,
        "meta_classification_type": "U",
        "meta_norad_cat_id": 34273,
        "meta_element_set_no": 999,
        "meta_rev_at_epoch": 88785,
        "meta_bstar": 0.00089366,
        "meta_mean_motion_dot": 4.393e-05,
        "meta_mean_motion_ddot": 0,
        "tle_line1": "1 34273U 93036LT  25357.95528955  .00004393  00000+0  89366-3 0  9993",
        "tle_line2": "2 34273  74.0358  65.9823 0013458 191.5668 347.9241 14.61319399887850"
      },
      "geometry": {
        "type": "Point",
        "coordinates": [
          95.70555797202573,
          60.741412991036526
        ]
      }
    },
    {
      "type": "Feature",
      "properties": {
        "norad_id": 34274,
        "name": "COSMOS 2251 DEB",
        "group": "cosmos-2251-debris",
        "lat": -57.56726692840845,
        "lon": 19.10603278596773,
        "alt_km": 687.6655223001208,
        "timestamp": "2025-12-24T11:33:00.412495+00:00",
        "meta_object_name": "COSMOS 2251 DEB",
        "meta_object_id": "1993-036LU",
        "meta_epoch": "2025-12-24T03:46:33.624768",
        "meta_mean_motion": 14.64904628,
        "meta_eccentricity": 0.0021361,
        "meta_inclination": 74.0035,
        "meta_ra_of_asc_node": 46.5676,
        "meta_arg_of_pericenter": 195.5945,
        "meta_mean_anomaly": 195.2716,
        "meta_ephemeris_type": 0,
        "meta_classification_type": "U",
        "meta_norad_cat_id": 34274,
        "meta_element_set_no": 999,
        "meta_rev_at_epoch": 88843,
        "meta_bstar": 0.0010236,
        "meta_mean_motion_dot": 5.465e-05,
        "meta_mean_motion_ddot": 0,
        "tle_line1": "1 34274U 93036LU  25358.15733362  .00005465  00000+0  10236-2 0  9997",
        "tle_line2": "2 34274  74.0035  46.5676 0021361 195.5945 195.2716 14.64904628888432"
      },
      "geometry": {
        "type": "Point",
        "coordinates": [
          19.10603278596773,
          -57.56726692840845
        ]
      }
    },
    {
      "type": "Feature",
      "properties": {
        "norad_id": 34276,
        "name": "COSMOS 2251 DEB",
        "group": "cosmos-2251-debris",
        "lat": -72.96329465473863,
        "lon": -6.220139228205338,
        "alt_km": 702.7941473420769,
        "timestamp": "2025-12-24T11:33:00.412506+00:00",
        "meta_object_name": "COSMOS 2251 DEB",
        "meta_object_id": "1993-036LW",
        "meta_epoch": "2025-12-24T03:49:33.682368",
        "meta_mean_motion": 14.57298197,
        "meta_eccentricity": 0.0022155,
        "meta_inclination": 74.0234,
        "meta_ra_of_asc_node": 63.6086,
        "meta_arg_of_pericenter": 209.2919,
        "meta_mean_anomaly": 178.6994,
        "meta_ephemeris_type": 0,
        "meta_classification_type": "U",
        "meta_norad_cat_id": 34276,
        "meta_element_set_no": 999,
        "meta_rev_at_epoch": 88759,
        "meta_bstar": 0.00069477,
        "meta_mean_motion_dot": 3.126e-05,
        "meta_mean_motion_ddot": 0,
        "tle_line1": "1 34276U 93036LW  25358.15941762  .00003126  00000+0  69477-3 0  9998",
        "tle_line2": "2 34276  74.0234  63.6086 0022155 209.2919 178.6994 14.57298197887594"
      },
      "geometry": {
        "type": "Point",
        "coordinates": [
          -6.220139228205338,
          -72.96329465473863
        ]
      }
    },
    {
      "type": "Feature",
      "properties": {
        "norad_id": 34297,
        "name": "COSMOS 2251 DEB",
        "group": "cosmos-2251-debris",
        "lat": 41.23092120513142,
        "lon": 68.15627824970026,
        "alt_km": 778.3272678008452,
        "timestamp": "2025-12-24T11:33:00.412516+00:00",
        "meta_object_name": "COSMOS 2251 DEB",
        "meta_object_id": "1993-036MT",
        "meta_epoch": "2025-12-24T03:04:53.665824",
        "meta_mean_motion": 14.36638644,
        "meta_eccentricity": 0.0017709,
        "meta_inclination": 74.0487,
        "meta_ra_of_asc_node": 263.3203,
        "meta_arg_of_pericenter": 329.9395,
        "meta_mean_anomaly": 142.4613,
        "meta_ephemeris_type": 0,
        "meta_classification_type": "U",
        "meta_norad_cat_id": 34297,
        "meta_element_set_no": 999,
        "meta_rev_at_epoch": 88228,
        "meta_bstar": 0.00013183,
        "meta_mean_motion_dot": 3.62e-06,
        "meta_mean_motion_ddot": 0,
        "tle_line1": "1 34297U 93036MT  25358.12839891  .00000362  00000+0  13183-3 0  9999",
        "tle_line2": "2 34297  74.0487 263.3203 0017709 329.9395 142.4613 14.36638644882284"
      },
      "geometry": {
        "type": "Point",
        "coordinates": [
          68.15627824970026,
          41.23092120513142
        ]
      }
    }
  ]
}